OBJECT_NAME,OBJECT_ID,EPOCH,MEAN_MOTION,ECCENTRICITY,INCLINATION,RA_OF_ASC_NODE,ARG_OF_PERICENTER,MEAN_ANOMALY,EPHEMERIS_TYPE,CLASSIFICATION_TYPE,NORAD_CAT_ID,ELEMENT_SET_NO,REV_AT_EPOCH,BSTAR,MEAN_MOTION_DOT,MEAN_MOTION_DDOT,SEMIMAJOR_AXIS,SATELLITE_TYPE
HORYU-4,2016-012D,2024-12-31T15:57:39.132864,15.26864332,0.0007399,30.9996,119.4552,187.7533,172.2996,0,U,41340,999,48824,0.0013485,0.00036887,0.0,6863.329900486865,CubeSat
RAVAN,2016-067B,2024-12-30T18:22:53.235552,15.22862699,0.001159,98.055,196.1972,76.6148,283.6378,0,U,41849,999,44580,0.001544,0.00036295,0.0,6875.34784246486,CubeSat
CELTEE 1,2016-067C,2024-12-31T11:15:10.635840,15.11349063,1.12e-05,98.1045,186.9517,181.9697,178.1531,0,U,41850,999,44517,0.00084874,0.00014259,0.0,6910.221799105219,CubeSat
OPTICUBE 04,2016-067D,2025-01-01T01:51:17.211456,15.05518209,0.0018513,98.0854,180.9074,110.6144,249.7068,0,U,41851,999,44498,0.00059335,8.506e-05,0.0,6928.052439355376,CubeSat
AEROCUBE 8D,2016-067E,2024-12-31T23:18:03.563712,15.13563753,0.0004699,98.1099,187.8853,147.5362,212.6157,0,U,41852,999,44525,0.0010781,0.00019303,0.0,6903.479330665541,CubeSat
AEROCUBE 8C,2016-067F,2024-12-31T23:39:16.751520,15.1360596,0.0007736,98.0924,186.0144,88.2242,271.9874,0,U,41853,999,44524,0.0011153,0.00020007,0.0,6903.3509940909435,CubeSat
PROMETHEUS 2-1,2016-067G,2025-01-01T00:24:11.695392,15.31633024,0.0009739,98.0906,197.7067,89.4729,270.7626,0,U,41854,999,44585,0.0020683,0.00063644,0.0,6849.076654471864,CubeSat
PROMETHEUS 2-3,2016-067H,2024-12-31T19:48:39.202272,15.31528932,0.0008182,98.0849,196.7966,99.6205,260.5959,0,U,41855,999,44582,0.0020593,0.00063132,0.0,6849.386987497717,CubeSat
CORVUS BC2,2017-042X,2024-12-31T10:07:35.731776,15.00873902,0.0013425,97.3662,180.9862,110.3745,249.8924,0,U,42846,999,40699,0.0007389,9.369e-05,0.0,6942.337197469258,CubeSat
CORVUS BC1,2017-042Y,2024-12-31T18:19:03.713952,15.01029535,0.0013072,97.3674,181.7302,84.7975,275.4742,0,U,42847,999,40706,0.00076257,9.71e-05,0.0,6941.857315534108,CubeSat
MIRATA,2017-073C,2024-12-31T22:38:49.083360,15.26297049,0.0123747,97.5652,251.3403,297.6152,61.2565,0,U,43015,999,38628,0.0024925,0.00081516,0.0,6865.030403560305,CubeSat
MAKERSAT 0,2017-073D,2025-01-01T03:08:34.799712,15.08009229,0.0166325,97.543,241.4206,330.3505,28.8371,0,U,43016,999,38563,0.0018803,0.00040037,0.0,6920.420889263146,CubeSat
SIRION PATHFINDER-2,2018-099B,2024-12-31T20:41:40.368192,15.0701864,0.0009672,97.5032,57.7084,342.6747,17.4149,0,U,43759,999,33223,0.00086662,0.00012949,0.0,6923.453164082176,CubeSat
CORVUS BC4,2018-099K,2025-01-01T01:57:24.169536,15.0584322,0.0010443,97.4856,54.4393,37.1114,323.0833,0,U,43767,999,33213,0.00087524,0.00012672,0.0,6927.055534220498,CubeSat
MOVE-II,2018-099Y,2024-12-31T20:22:44.581440,15.35518885,0.0004675,97.4927,70.1175,14.1524,345.985,0,U,43780,999,33303,0.0025418,0.000886,0.0,6837.516697717921,CubeSat
SPACEBEE-7,2018-099BL,2024-12-31T10:39:38.346048,15.23725504,0.0007126,97.5222,68.9892,329.6493,30.433,0,U,43816,999,33231,0.0016453,0.00039658,0.0,6872.7521673873,CubeSat
SPACEBEE-6,2018-099BN,2025-01-01T04:25:06.614112,15.86497495,0.0007754,97.4973,82.2169,297.5781,62.4701,0,U,43818,999,33340,0.0042928,0.01206572,0.0,6690.248472028588,CubeSat
SHIELDS 1,2018-104B,2024-12-31T18:36:49.996224,15.48903673,0.0009781,85.0201,148.0045,45.8425,314.3634,0,U,43850,999,33662,0.00075666,0.00041035,0.0,6798.068998442889,CubeSat
SONATE,2019-038Q,2025-01-01T01:51:34.412832,15.52589744,0.0013798,97.7116,12.4352,109.9736,250.3003,0,U,44400,999,30457,0.0012865,0.00079927,0.0,6787.305008429758,CubeSat
DUCHIFAT-3,2019-089C,2024-12-31T21:09:50.194944,15.30078326,0.0012599,36.9504,277.8154,303.1274,56.8268,0,U,44854,999,27841,0.0018527,0.00055699,0.0,6853.715390126114,CubeSat
M2 PATHFINDER,2020-037E,2024-12-31T10:33:44.747136,15.00051406,0.0011662,97.7772,182.3437,161.3691,198.7961,0,U,45727,999,24548,0.00073378,9.096e-05,0.0,6944.874676236384,CubeSat
NETSAT-4,2020-068U,2024-12-31T20:33:19.238688,15.23283557,0.0010504,97.8296,330.6897,48.3444,311.8689,0,U,46504,999,23417,0.001259,0.00029917,0.0,6874.081421040296,CubeSat
NETSAT-3,2020-068V,2024-12-31T15:50:59.659008,15.22447064,0.0010117,97.8283,329.74,57.3725,302.8485,0,U,46505,999,23412,0.0011768,0.00027264,0.0,6876.599119771099,CubeSat
NETSAT-1,2020-068W,2024-12-31T08:31:32.784384,15.1920245,0.0009476,97.8304,328.2272,68.461,291.7633,0,U,46506,999,23399,0.0008692,0.00018274,0.0,6886.386700638909,CubeSat
NETSAT-2,2020-068X,2024-12-31T21:10:25.510944,15.23114876,0.0008707,97.8284,330.2877,70.4644,289.7531,0,U,46507,999,23412,0.0011971,0.00028282,0.0,6874.588936065405,CubeSat
WILDTRACKCUBE-SIMBA,2021-022K,2025-01-01T03:03:50.437440,15.33297865,0.0012377,97.4404,263.3477,154.2658,205.9202,0,U,47941,999,20866,0.001446,0.00046787,0.0,6844.117979726442,CubeSat
GRBALPHA,2021-022AD,2025-01-01T03:21:35.540352,15.45697971,0.0010713,97.4392,267.4165,132.5483,227.6672,0,U,47959,999,20775,0.0020857,0.00101987,0.0,6807.46499426965,CubeSat
BEESAT-8,2021-022AP,2024-12-30T17:18:46.450944,15.73466822,0.0011434,97.4765,273.5903,103.2949,256.959,0,U,48085,999,20823,0.0029596,0.00432562,0.0,6727.134559725418,CubeSat
